NORAD_CAT_ID,OBJECT_NAME,OBJECT_TYPE,EPOCH,MEAN_MOTION,ECCENTRICITY,INCLINATION,RA_OF_ASC_NODE,ARG_OF_PERICENTER,MEAN_ANOMALY,BSTAR,MEAN_MOTION_DOT,MEAN_MOTION_DDOT,TLE_LINE0,TLE_LINE1,TLE_LINE2,SEMIMAJOR_AXIS,PERIOD,APOGEE,PERIGEE,DECAYED
55962.0,STARLINK-5906,PAYLOAD,2024-06-17 20:02:57,14.9832914,0.0003011,70.0002,52.6807,272.2304,87.851,8.7049e-06,1.1e-07,0.0,0 STARLINK-5906,1 55962U 23037BA  24169.83539013  .00000011  00000-0  87049-5 0  9991,2 55962  70.0002  52.6807 0003011 272.2304  87.8510 14.98329140 70468,6950.196,96.107,574.153,569.968,0.0
55962.0,STARLINK-5906,PAYLOAD,2024-06-17 23:15:13,14.98332385,0.0003051,70.0,52.3441,272.3281,87.7528,2.1803e-05,1.67e-06,0.0,0 STARLINK-5906,1 55962U 23037BA  24169.96890766  .00000167  00000-0  21803-4 0  9997,2 55962  70.0000  52.3441 0003051 272.3281  87.7528 14.98332385 70144,6950.186,96.107,574.171,569.93,0.0
55962.0,STARLINK-5906,PAYLOAD,2024-06-18 08:52:01,14.9833341,0.0002987,70.0003,51.334,273.0682,87.0135,2.3368e-06,-6.5e-07,0.0,0 STARLINK-5906,1 55962U 23037BA  24170.36946682 -.00000065  00000-0  23368-5 0  9999,2 55962  70.0003  51.3340 0002987 273.0682  87.0135 14.98333410 70208,6950.182,96.107,574.123,569.971,0.0
55962.0,STARLINK-5906,PAYLOAD,2024-06-18 20:04:58,14.98329787,0.0003011,70.0002,50.1557,272.8248,87.2566,2.7883e-05,2.4e-06,0.0,0 STARLINK-5906,1 55962U 23037BA  24170.83678780  .00000240  00000-0  27883-4 0  9991,2 55962  70.0002  50.1557 0003011 272.8248  87.2566 14.98329787 70615,6950.194,96.107,574.151,569.966,0.0
55962.0,STARLINK-5906,PAYLOAD,2024-06-18 21:41:06,14.9832972,0.0003012,70.0002,49.9874,272.8218,87.2597,2.6684e-05,2.25e-06,0.0,0 STARLINK-5906,1 55962U 23037BA  24170.90354787  .00000225  00000-0  26684-4 0  9998,2 55962  70.0002  49.9874 0003012 272.8218  87.2597 14.98329720 70285,6950.194,96.107,574.152,569.965,0.0
55962.0,STARLINK-5906,PAYLOAD,2024-06-19 08:54:03,14.98328507,0.0002922,70.0003,48.8096,271.3775,88.7049,-4.1167e-06,-1.42e-06,0.0,0 STARLINK-5906,1 55962U 23037BA  24171.37086865 -.00000142  00000-0 -41167-5 0  9993,2 55962  70.0003  48.8096 0002922 271.3775  88.7049 14.98328507 70359,6950.198,96.107,574.093,570.032,0.0
55962.0,STARLINK-5906,PAYLOAD,2024-06-19 20:06:59,14.9832798,0.0002884,70.0003,47.6317,267.8045,92.2784,-6.5326e-05,-8.72e-06,0.0,0 STARLINK-5906,1 55962U 23037BA  24171.83819085 -.00000872  00000-0 -65326-4 0  9994,2 55962  70.0003  47.6317 0002884 267.8045  92.2784 14.98327980 70764,6950.199,96.107,574.069,570.06,0.0
55962.0,STARLINK-5906,PAYLOAD,2024-06-19 21:43:07,14.98326928,0.0002788,70.0005,47.4635,264.7349,95.3492,-2.5458e-05,-3.97e-06,0.0,0 STARLINK-5906,1 55962U 23037BA  24171.90495028 -.00000397  00000-0 -25458-4 0  9993,2 55962  70.0005  47.4635 0002788 264.7349  95.3492 14.98326928 70438,6950.202,96.107,574.005,570.13,0.0
55962.0,STARLINK-5906,PAYLOAD,2024-06-20 08:56:04,14.98329231,0.0002878,70.0004,46.2848,269.7256,90.3573,-2.9537e-05,-4.45e-06,0.0,0 STARLINK-5906,1 55962U 23037BA  24172.37226942 -.00000445  00000-0 -29537-4 0  9998,2 55962  70.0004  46.2848 0002878 269.7256  90.3573 14.98329231 70505,6950.195,96.107,574.061,570.06,0.0
55962.0,STARLINK-5906,PAYLOAD,2024-06-20 21:45:08,14.98329499,0.0002894,70.0004,44.9387,264.7957,95.2872,-2.6888e-05,-4.14e-06,0.0,0 STARLINK-5906,1 55962U 23037BA  24172.90634882 -.00000414  00000-0 -26888-4 0  9995,2 55962  70.0004  44.9387 0002894 264.7957  95.2872 14.98329499 70589,6950.194,96.107,574.071,570.048,0.0
55962.0,STARLINK-5906,PAYLOAD,2024-06-20 23:21:16,14.98329722,0.0002884,70.0005,44.7704,265.385,94.6979,-4.4939e-06,-1.47e-06,0.0,0 STARLINK-5906,1 55962U 23037BA  24172.97310807 -.00000147  00000-0 -44939-5 0  9991,2 55962  70.0005  44.7704 0002884 265.3850  94.6979 14.98329722 70938,6950.194,96.107,574.063,570.054,0.0
55962.0,STARLINK-5906,PAYLOAD,2024-06-21 00:57:24,14.98329411,0.000297,70.0006,44.602,268.6085,91.4734,3.7025e-06,-4.9e-07,0.0,0 STARLINK-5906,1 55962U 23037BA  24173.03986811 -.00000049  00000-0  37025-5 0  9991,2 55962  70.0006  44.6020 0002970 268.6085  91.4734 14.98329411 70604,6950.195,96.107,574.124,569.996,0.0
55962.0,STARLINK-5906,PAYLOAD,2024-06-21 21:47:09,14.98328722,0.0002987,70.0002,42.4133,269.1089,90.9728,3.6167e-05,3.39e-06,0.0,0 STARLINK-5906,1 55962U 23037BA  24173.90774759  .00000339  00000-0  36167-4 0  9999,2 55962  70.0002  42.4133 0002987 269.1089  90.9728 14.98328722 70734,6950.197,96.107,574.138,569.986,0.0
55962.0,STARLINK-5906,PAYLOAD,2024-06-22 00:59:25,14.98329528,0.0002979,70.0002,42.0767,269.1148,90.9669,4.3722e-05,4.29e-06,0.0,0 STARLINK-5906,1 55962U 23037BA  24174.04126689  .00000429  00000-0  43722-4 0  9993,2 55962  70.0002  42.0767 0002979 269.1148  90.9669 14.98329528 71099,6950.194,96.107,574.13,569.989,0.0
55962.0,STARLINK-5906,PAYLOAD,2024-06-22 13:48:29,14.98330419,0.0002978,70.0002,40.7299,268.9708,91.111,3.2379e-05,2.93e-06,0.0,0 STARLINK-5906,1 55962U 23037BA  24174.57534634  .00000293  00000-0  32379-4 0  9999,2 55962  70.0002  40.7299 0002978 268.9708  91.1110 14.98330419 70838,6950.192,96.107,574.126,569.987,0.0
55962.0,STARLINK-5906,PAYLOAD,2024-06-22 21:49:10,14.98329714,0.0002969,70.0001,39.8873,267.2372,92.8447,-3.7629e-06,-1.38e-06,0.0,0 STARLINK-5906,1 55962U 23037BA  24174.90914761 -.00000138  00000-0 -37629-5 0  9993,2 55962  70.0001  39.8873 0002969 267.2372  92.8447 14.98329714 70885,6950.194,96.107,574.122,569.995,0.0
55962.0,STARLINK-5906,PAYLOAD,2024-06-23 13:50:30,14.9833027,0.0003011,70.0001,38.204,271.7591,88.3223,-8.6073e-06,-1.96e-06,0.0,0 STARLINK-5906,1 55962U 23037BA  24175.57674703 -.00000196  00000-0 -86073-5 0  9997,2 55962  70.0001  38.2040 0003011 271.7591  88.3223 14.98330270 70988,6950.192,96.107,574.15,569.964,0.0
55962.0,STARLINK-5906,PAYLOAD,2024-06-23 20:15:03,14.98330506,0.000301,70.0001,37.5306,271.7685,88.3129,-4.7129e-06,-1.49e-06,0.0,0 STARLINK-5906,1 55962U 23037BA  24175.84378659 -.00000149  00000-0 -47129-5 0  9995,2 55962  70.0001  37.5306 0003010 271.7685  88.3129 14.98330506 71368,6950.191,96.107,574.148,569.964,0.0
55962.0,STARLINK-5906,PAYLOAD,2024-06-23 21:51:11,14.98331344,0.0002991,70.0001,37.3622,271.4353,88.6463,6.1133e-06,-2e-07,0.0,0 STARLINK-5906,1 55962U 23037BA  24175.91054565 -.00000020  00000-0  61133-5 0  9998,2 55962  70.0001  37.3622 0002991 271.4353  88.6463 14.98331344 71032,6950.189,96.107,574.133,569.975,0.0
55962.0,STARLINK-5906,PAYLOAD,2024-06-24 01:03:27,14.98333418,0.0002959,70.0002,37.0254,271.0744,89.0076,3.0464e-05,2.71e-06,0.0,0 STARLINK-5906,1 55962U 23037BA  24176.04406339  .00000271  00000-0  30464-4 0  9992,2 55962  70.0002  37.0254 0002959 271.0744  89.0076 14.98333418 71056,6950.182,96.107,574.104,569.991,0.0
55962.0,STARLINK-5906,PAYLOAD,2024-06-24 20:17:04,14.98329099,0.0002888,70.0003,35.0056,271.9231,88.1597,-2.1517e-07,-9.6e-07,0.0,0 STARLINK-5906,1 55962U 23037BA  24176.84518607 -.00000096  00000-0 -21517-6 0  9990,2 55962  70.0003  35.0056 0002888 271.9231  88.1597 14.98329099 71515,6950.196,96.107,574.068,570.053,0.0
55962.0,STARLINK-5906,PAYLOAD,2024-06-24 21:53:12,14.98329597,0.0002875,70.0003,34.8373,271.8236,88.2594,5.4519e-06,-2.8e-07,0.0,0 STARLINK-5906,1 55962U 23037BA  24176.91194559 -.00000028  00000-0  54519-5 0  9995,2 55962  70.0003  34.8373 0002875 271.8236  88.2594 14.98329597 71188,6950.194,96.107,574.057,570.061,0.0
55962.0,STARLINK-5906,PAYLOAD,2024-06-24 23:29:20,14.98330622,0.000286,70.0003,34.669,271.904,88.1791,1.729e-05,1.13e-06,0.0,0 STARLINK-5906,1 55962U 23037BA  24176.97870456  .00000113  00000-0  17290-4 0  9996,2 55962  70.0003  34.6690 0002860 271.9040  88.1791 14.98330622 71196,6950.191,96.107,574.044,570.068,0.0
55962.0,STARLINK-5906,PAYLOAD,2024-06-25 21:55:12,14.98331206,0.0002774,70.0005,32.313,263.2286,96.8558,3.6273e-06,-5e-07,0.0,0 STARLINK-5906,1 55962U 23037BA  24177.91334284 -.00000050  00000-0  36273-5 0  9999,2 55962  70.0005  32.3130 0002774 263.2286  96.8558 14.98331206 71334,6950.189,96.107,573.982,570.126,0.0
55962.0,STARLINK-5906,PAYLOAD,2024-06-25 23:31:20,14.98331792,0.000277,70.0006,32.1447,263.8976,96.1867,1.0323e-05,3e-07,0.0,0 STARLINK-5906,1 55962U 23037BA  24177.98010223  .00000030  00000-0  10323-4 0  9994,2 55962  70.0006  32.1447 0002770 263.8976  96.1867 14.98331792 71686,6950.187,96.107,573.978,570.127,0.0
55962.0,STARLINK-5906,PAYLOAD,2024-06-26 23:33:21,14.98329188,0.0002763,70.0008,29.6209,258.3981,101.6868,-1.6954e-05,-2.95e-06,0.0,0 STARLINK-5906,1 55962U 23037BA  24178.98150348 -.00000295  00000-0 -16954-4 0  9999,2 55962  70.0008  29.6209 0002763 258.3981 101.6868 14.98329188 71838,6950.195,96.107,573.981,570.14,0.0
55962.0,STARLINK-5906,PAYLOAD,2024-06-27 21:59:15,14.98326443,0.0003052,70.0002,27.2625,268.6857,91.3952,-6.2243e-05,-8.36e-06,0.0,0 STARLINK-5906,1 55962U 23037BA  24179.91614791 -.00000836  00000-0 -62243-4 0  9993,2 55962  70.0002  27.2625 0003052 268.6857  91.3952 14.98326443 71634,6950.204,96.107,574.19,569.948,0.0
55962.0,STARLINK-5906,PAYLOAD,2024-06-27 23:35:23,14.98327387,0.0003055,70.0003,27.0944,269.0882,90.9928,-5.1074e-05,-7.02e-06,0.0,0 STARLINK-5906,1 55962U 23037BA  24179.98290715 -.00000702  00000-0 -51074-4 0  9998,2 55962  70.0003  27.0944 0003055 269.0882  90.9928 14.98327387 71987,6950.201,96.107,574.189,569.943,0.0
55962.0,STARLINK-5906,PAYLOAD,2024-06-28 14:00:35,14.983284,0.0003206,70.0,25.5783,266.9373,93.1419,8.0641e-05,8.69e-06,0.0,0 STARLINK-5906,1 55962U 23037BA  24180.58374163  .00000869  00000-0  80641-4 0  9990,2 55962  70.0000  25.5783 0003206 266.9373  93.1419 14.98328400 71737,6950.198,96.107,574.291,569.835,0.0
55962.0,STARLINK-5906,PAYLOAD,2024-06-28 20:25:07,14.98331043,0.0003175,69.9998,24.905,267.1033,92.9762,0.00010279,1.134e-05,0.0,0 STARLINK-5906,1 55962U 23037BA  24180.85077960  .00001134  00000-0  10279-3 0  9990,2 55962  69.9998  24.9050 0003175 267.1033  92.9762 14.98331043 72119,6950.19,96.107,574.261,569.848,0.0
